ONEWEB-0634             
1 56075U 23043AF  25279.80193312 -.00000104  00000+0 -30915-3 0  9994
2 56075  87.8990 309.8002 0002167  98.2582 261.8794 13.15547440123083
ONEWEB-0635             
1 56076U 23043AG  25280.02535972  .00000039  00000+0  70118-4 0  9998
2 56076  87.8979 309.7144 0001652  87.6622 272.4698 13.15549759123145
ONEWEB-0636             
1 56077U 23043AH  25280.01742553  .00000129  00000+0  30871-3 0  9994
2 56077  87.8987 309.7338 0001716  89.1233 271.0094 13.15547041123121
ONEWEB-0637             
1 56078U 23043AJ  25280.01108234  .00000133  00000+0  31919-3 0  9996
2 56078  87.8988 309.7489 0002030  86.1614 273.9748 13.15547988123149
ONEWEB-0647             
1 56079U 23043AK  25279.77816402  .00000105  00000+0  24545-3 0  9997
2 56079  87.8986 309.8088 0001661  94.4585 265.6735 13.15545905123109
ONEWEB-0651             
1 56080U 23043AL  25279.46919411  .00000209  00000+0  52241-3 0  9998
2 56080  87.8991 309.8624 0001818  86.0940 274.0398 13.15549489124267
ONEWEB-0718             
1 56081U 23043AM  25279.46443716  .00000212  00000+0  52862-3 0  9992
2 56081  87.8991 309.8440 0002469  98.3258 261.8152 13.15546297123079
ONEWEB-0561             
1 56710U 23068A   25279.86706944 -.00000060  00000+0 -18042-3 0  9992
2 56710  87.9228 324.9712 0001460  90.6279 269.5022 13.20771962116067
